[{"OBJECT_NAME":"ONEWEB-0012","OBJECT_ID":"2019-010A","EPOCH":"2025-07-27T14:15:35.217504","MEAN_MOTION":13.16593488,"ECCENTRICITY":0.0002469,"INCLINATION":87.9048,"RA_OF_ASC_NODE":293.5026,"ARG_OF_PERICENTER":106.5243,"MEAN_ANOMALY":253.6159,"EPHEMERIS_TYPE":0,"CLASSIFICATION_TYPE":"U","NORAD_CAT_ID":44057,"ELEMENT_SET_NO":999,"REV_AT_EPOCH":30885,"BSTAR":0.00011423,"MEAN_MOTION_DOT":5.7e-7,"MEAN_MOTION_DDOT":0},{"OBJECT_NAME":"ONEWEB-0010","OBJECT_ID":"2019-010B","EPOCH":"2025-07-27T11:13:11.843616","MEAN_MOTION":13.16595582,"ECCENTRICITY":0.0002144,"INCLINATION":87.9048,"RA_OF_ASC_NODE":293.5112,"ARG_OF_PERICENTER":87.7419,"MEAN_ANOMALY":272.3957,"EPHEMERIS_TYPE":0,"CLASSIFICATION_TYPE":"U","NORAD_CAT_ID":44058,"ELEMENT_SET_NO":999,"REV_AT_EPOCH":30888,"BSTAR":0.00015999,"MEAN_MOTION_DOT":7.4e-7,"MEAN_MOTION_DDOT":0},{"OBJECT_NAME":"ONEWEB-0008","OBJECT_ID":"2019-010C","EPOCH":"2025-07-27T06:21:21.975552","MEAN_MOTION":13.16593793,"ECCENTRICITY":0.0001835,"INCLINATION":87.9046,"RA_OF_ASC_NODE":293.55,"ARG_OF_PERICENTER":102.6288,"MEAN_ANOMALY":257.5048,"EPHEMERIS_TYPE":0,"CLASSIFICATION_TYPE":"U","NORAD_CAT_ID":44059,"ELEMENT_SET_NO":999,"REV_AT_EPOCH":30897,"BSTAR":6.3777e-5,"MEAN_MOTION_DOT":3.7e-7,"MEAN_MOTION_DDOT":0},{"OBJECT_NAME":"ONEWEB-0007","OBJECT_ID":"2019-010D","EPOCH":"2025-07-27T13:46:55.411680","MEAN_MOTION":13.15549674,"ECCENTRICITY":0.0002231,"INCLINATION":87.9092,"RA_OF_ASC_NODE":323.9614,"ARG_OF_PERICENTER":95.2885,"MEAN_ANOMALY":264.85,"EPHEMERIS_TYPE":0,"CLASSIFICATION_TYPE":"U","NORAD_CAT_ID":44060,"ELEMENT_SET_NO":999,"REV_AT_EPOCH":30869,"BSTAR":-0.00018786,"MEAN_MOTION_DOT":-5.8e-7,"MEAN_MOTION_DDOT":0},{"OBJECT_NAME":"ONEWEB-0006","OBJECT_ID":"2019-010E","EPOCH":"2025-07-27T13:52:36.842880","MEAN_MOTION":13.1554777,"ECCENTRICITY":0.0002084,"INCLINATION":87.908,"RA_OF_ASC_NODE":323.9037,"ARG_OF_PERICENTER":92.8165,"MEAN_ANOMALY":267.3204,"EPHEMERIS_TYPE":0,"CLASSIFICATION_TYPE":"U","NORAD_CAT_ID":44061,"ELEMENT_SET_NO":999,"REV_AT_EPOCH":30874,"BSTAR":-0.00020984,"MEAN_MOTION_DOT":-6.6e-7,"MEAN_MOTION_DDOT":0},{"OBJECT_NAME":"ONEWEB-0011","OBJECT_ID":"2019-010F","EPOCH":"2025-07-27T14:56:31.564320","MEAN_MOTION":13.15547967,"ECCENTRICITY":0.0001711,"INCLINATION":87.9084,"RA_OF_ASC_NODE":323.9052,"ARG_OF_PERICENTER":94.0932,"MEAN_ANOMALY":266.0394,"EPHEMERIS_TYPE":0,"CLASSIFICATION_TYPE":"U","NORAD_CAT_ID":44062,"ELEMENT_SET_NO":999,"REV_AT_EPOCH":30874,"BSTAR":0.00039416,"MEAN_MOTION_DOT":1.61e-6,"MEAN_MOTION_DDOT":0},{"OBJECT_NAME":"ONEWEB-0013","OBJECT_ID":"2020-008A","EPOCH":"2025-07-27T17:25:32.653632","MEAN_MOTION":13.09432192,"ECCENTRICITY":0.0002408,"INCLINATION":87.8565,"RA_OF_ASC_NODE":118.3369,"ARG_OF_PERICENTER":99.6745,"MEAN_ANOMALY":260.4653,"EPHEMERIS_TYPE":0,"CLASSIFICATION_TYPE":"U","NORAD_CAT_ID":45131,"ELEMENT_SET_NO":999,"REV_AT_EPOCH":26436,"BSTAR":0.0010229,"MEAN_MOTION_DOT":3.65e-6,"MEAN_MOTION_DDOT":0},{"OBJECT_NAME":"ONEWEB-0017","OBJECT_ID":"2020-008B","EPOCH":"2025-07-27T18:51:31.578624","MEAN_MOTION":13.10369851,"ECCENTRICITY":0.0001866,"INCLINATION":87.8802,"RA_OF_ASC_NODE":100.9779,"ARG_OF_PERICENTER":69.563,"MEAN_ANOMALY":290.5698,"EPHEMERIS_TYPE":0,"CLASSIFICATION_TYPE":"U","NORAD_CAT_ID":45132,"ELEMENT_SET_NO":999,"REV_AT_EPOCH":26623,"BSTAR":4.1736e-5,"MEAN_MOTION_DOT":2.7e-7,"MEAN_MOTION_DDOT":0},{"OBJECT_NAME":"ONEWEB-0020","OBJECT_ID":"2020-008C","EPOCH":"2025-07-27T18:08:29.092992","MEAN_MOTION":13.10377019,"ECCENTRICITY":0.0001618,"INCLINATION":87.8809,"RA_OF_ASC_NODE":100.9675,"ARG_OF_PERICENTER":74.3726,"MEAN_ANOMALY":285.7579,"EPHEMERIS_TYPE":0,"CLASSIFICATION_TYPE":"U","NORAD_CAT_ID":45133,"ELEMENT_SET_NO":999,"REV_AT_EPOCH":26663,"BSTAR":0.00092384,"MEAN_MOTION_DOT":3.35e-6,"MEAN_MOTION_DDOT":0},{"OBJECT_NAME":"ONEWEB-0021","OBJECT_ID":"2020-008D","EPOCH":"2025-07-27T14:50:08.395008","MEAN_MOTION":13.10372658,"ECCENTRICITY":0.0001966,"INCLINATION":87.8807,"RA_OF_ASC_NODE":101.0288,"ARG_OF_PERICENTER":77.2267,"MEAN_ANOMALY":282.908,"EPHEMERIS_TYPE":0,"CLASSIFICATION_TYPE":"U","NORAD_CAT_ID":45134,"ELEMENT_SET_NO":999,"REV_AT_EPOCH":26614,"BSTAR":0.0018431,"MEAN_MOTION_DOT":6.56e-6,"MEAN_MOTION_DDOT":0},{"OBJECT_NAME":"ONEWEB-0023","OBJECT_ID":"2020-008F","EPOCH":"2025-07-27T15:05:38.351904","MEAN_MOTION":13.10369746,"ECCENTRICITY":0.0001648,"INCLINATION":87.88,"RA_OF_ASC_NODE":101.0101,"ARG_OF_PERICENTER":84.2978,"MEAN_ANOMALY":275.8338,"EPHEMERIS_TYPE":0,"CLASSIFICATION_TYPE":"U","NORAD_CAT_ID":45136,"ELEMENT_SET_NO":999,"REV_AT_EPOCH":26557,"BSTAR":0.00072854,"MEAN_MOTION_DOT":2.67e-6,"MEAN_MOTION_DDOT":0},{"OBJECT_NAME":"ONEWEB-0024","OBJECT_ID":"2020-008G","EPOCH":"2025-07-27T18:06:06.845760","MEAN_MOTION":13.10376009,"ECCENTRICITY":0.000188,"INCLINATION":87.8809,"RA_OF_ASC_NODE":100.9332,"ARG_OF_PERICENTER":75.4926,"MEAN_ANOMALY":284.641,"EPHEMERIS_TYPE":0,"CLASSIFICATION_TYPE":"U","NORAD_CAT_ID":45137,"ELEMENT_SET_NO":999,"REV_AT_EPOCH":26650,"BSTAR":0.00091465,"MEAN_MOTION_DOT":3.32e-6,"MEAN_MOTION_DDOT":0},{"OBJECT_NAME":"ONEWEB-0025","OBJECT_ID":"2020-008H","EPOCH":"2025-07-27T18:31:12.368352","MEAN_MOTION":13.10371332,"ECCENTRICITY":0.000217,"INCLINATION":87.8821,"RA_OF_ASC_NODE":100.9354,"ARG_OF_PERICENTER":92.4627,"MEAN_ANOMALY":267.6748,"EPHEMERIS_TYPE":0,"CLASSIFICATION_TYPE":"U","NORAD_CAT_ID":45138,"ELEMENT_SET_NO":999,"REV_AT_EPOCH":26683,"BSTAR":0.0018933,"MEAN_MOTION_DOT":6.74e-6,"MEAN_MOTION_DDOT":0},{"OBJECT_NAME":"ONEWEB-0026","OBJECT_ID":"2020-008J","EPOCH":"2025-07-27T14:12:36.729792","MEAN_MOTION":13.1141364,"ECCENTRICITY":0.0001721,"INCLINATION":87.8812,"RA_OF_ASC_NODE":85.763,"ARG_OF_PERICENTER":72.7405,"MEAN_ANOMALY":287.3912,"EPHEMERIS_TYPE":0,"CLASSIFICATION_TYPE":"U","NORAD_CAT_ID":45139,"ELEMENT_SET_NO":999,"REV_AT_EPOCH":26856,"BSTAR":-0.00015459,"MEAN_MOTION_DOT":-4.2e-7,"MEAN_MOTION_DDOT":0},{"OBJECT_NAME":"ONEWEB-0028","OBJECT_ID":"2020-008K","EPOCH":"2025-07-27T15:00:13.855968","MEAN_MOTION":13.11418501,"ECCENTRICITY":0.0002128,"INCLINATION":87.881,"RA_OF_ASC_NODE":85.7789,"ARG_OF_PERICENTER":95.9493,"MEAN_ANOMALY":264.1878,"EPHEMERIS_TYPE":0,"CLASSIFICATION_TYPE":"U","NORAD_CAT_ID":45140,"ELEMENT_SET_NO":999,"REV_AT_EPOCH":26608,"BSTAR":-0.0005456,"MEAN_MOTION_DOT":-1.81e-6,"MEAN_MOTION_DDOT":0},{"OBJECT_NAME":"ONEWEB-0032","OBJECT_ID":"2020-008L","EPOCH":"2025-07-27T15:14:00.222720","MEAN_MOTION":13.10369596,"ECCENTRICITY":0.0001907,"INCLINATION":87.8796,"RA_OF_ASC_NODE":101.0108,"ARG_OF_PERICENTER":82.7341,"MEAN_ANOMALY":277.4003,"EPHEMERIS_TYPE":0,"CLASSIFICATION_TYPE":"U","NORAD_CAT_ID":45141,"ELEMENT_SET_NO":999,"REV_AT_EPOCH":26579,"BSTAR":-0.00023139,"MEAN_MOTION_DOT":-6.8e-7,"MEAN_MOTION_DDOT":0},{"OBJECT_NAME":"ONEWEB-0033","OBJECT_ID":"2020-008M","EPOCH":"2025-07-27T18:18:04.144608","MEAN_MOTION":13.10375466,"ECCENTRICITY":0.0001872,"INCLINATION":87.8802,"RA_OF_ASC_NODE":100.9969,"ARG_OF_PERICENTER":70.9622,"MEAN_ANOMALY":289.1708,"EPHEMERIS_TYPE":0,"CLASSIFICATION_TYPE":"U","NORAD_CAT_ID":45142,"ELEMENT_SET_NO":999,"REV_AT_EPOCH":26662,"BSTAR":0.0018859,"MEAN_MOTION_DOT":6.71e-6,"MEAN_MOTION_DDOT":0}]
