ONEWEB-0012             
1 44057U 19010A   25208.59415761  .00000057  00000+0  11423-3 0  9991
2 44057  87.9048 293.5026 0002469 106.5243 253.6159 13.16593488308850
ONEWEB-0010             
1 44058U 19010B   25208.46749819  .00000074  00000+0  15999-3 0  9993
2 44058  87.9048 293.5112 0002144  87.7419 272.3957 13.16595582308886
ONEWEB-0008             
1 44059U 19010C   25208.26483768  .00000037  00000+0  63777-4 0  9997
2 44059  87.9046 293.5500 0001835 102.6288 257.5048 13.16593793308971
ONEWEB-0007             
1 44060U 19010D   25208.57425245 -.00000058  00000+0 -18786-3 0  9993
2 44060  87.9092 323.9614 0002231  95.2885 264.8500 13.15549674308690
ONEWEB-0006             
1 44061U 19010E   25208.57820420 -.00000066  00000+0 -20984-3 0  9990
2 44061  87.9080 323.9037 0002084  92.8165 267.3204 13.15547770308747
ONEWEB-0011             
1 44062U 19010F   25208.62258755  .00000161  00000+0  39416-3 0  9997
2 44062  87.9084 323.9052 0001711  94.0932 266.0394 13.15547967308745
ONEWEB-0013             
1 45131U 20008A   25208.72607238  .00000365  00000+0  10229-2 0  9995
2 45131  87.8565 118.3369 0002408  99.6745 260.4653 13.09432192264361
ONEWEB-0017             
1 45132U 20008B   25208.78578216  .00000027  00000+0  41736-4 0  9999
2 45132  87.8802 100.9779 0001866  69.5630 290.5698 13.10369851266238
ONEWEB-0020             
1 45133U 20008C   25208.75589228  .00000335  00000+0  92384-3 0  9998
2 45133  87.8809 100.9675 0001618  74.3726 285.7579 13.10377019266639
ONEWEB-0021             
1 45134U 20008D   25208.61815272  .00000656  00000+0  18431-2 0  9991
2 45134  87.8807 101.0288 0001966  77.2267 282.9080 13.10372658266144
ONEWEB-0023             
1 45136U 20008F   25208.62891611  .00000267  00000+0  72854-3 0  9993
2 45136  87.8800 101.0101 0001648  84.2978 275.8338 13.10369746265574
ONEWEB-0024             
1 45137U 20008G   25208.75424590  .00000332  00000+0  91465-3 0  9998
2 45137  87.8809 100.9332 0001880  75.4926 284.6410 13.10376009266504
ONEWEB-0025             
1 45138U 20008H   25208.77167093  .00000674  00000+0  18933-2 0  9990
2 45138  87.8821 100.9354 0002170  92.4627 267.6748 13.10371332266838
ONEWEB-0026             
1 45139U 20008J   25208.59209178 -.00000042  00000+0 -15459-3 0  9994
2 45139  87.8812  85.7630 0001721  72.7405 287.3912 13.11413640268566
ONEWEB-0028             
1 45140U 20008K   25208.62516037 -.00000181  00000+0 -54560-3 0  9995
2 45140  87.8810  85.7789 0002128  95.9493 264.1878 13.11418501266087
ONEWEB-0032             
1 45141U 20008L   25208.63472480 -.00000068  00000+0 -23139-3 0  9992
2 45141  87.8796 101.0108 0001907  82.7341 277.4003 13.10369596265790
ONEWEB-0033             
1 45142U 20008M   25208.76254797  .00000671  00000+0  18859-2 0  9996
2 45142  87.8802 100.9969 0001872  70.9622 289.1708 13.10375466266622
